[{"OBJECT_NAME":"KUIPER-00130","OBJECT_ID":"2025-228N","EPOCH":"2026-03-09T23:25:45.285312","MEAN_MOTION":14.79902266,"ECCENTRICITY":6.059e-5,"INCLINATION":51.903,"RA_OF_ASC_NODE":349.3445,"ARG_OF_PERICENTER":87.581,"MEAN_ANOMALY":272.5222,"EPHEMERIS_TYPE":0,"CLASSIFICATION_TYPE":"U","NORAD_CAT_ID":65959,"ELEMENT_SET_NO":999,"REV_AT_EPOCH":1370,"BSTAR":0.00026674985,"MEAN_MOTION_DOT":1.812e-5,"MEAN_MOTION_DDOT":0},{"OBJECT_NAME":"CZ-6A DEB","OBJECT_ID":"2024-140UC","EPOCH":"2026-03-09T12:32:09.555648","MEAN_MOTION":14.72365713,"ECCENTRICITY":0.0073343,"INCLINATION":88.9436,"RA_OF_ASC_NODE":277.5459,"ARG_OF_PERICENTER":228.4297,"MEAN_ANOMALY":131.0621,"EPHEMERIS_TYPE":0,"CLASSIFICATION_TYPE":"U","NORAD_CAT_ID":61315,"ELEMENT_SET_NO":999,"REV_AT_EPOCH":8150,"BSTAR":0.0023266486,"MEAN_MOTION_DOT":0.00015398,"MEAN_MOTION_DDOT":0}]
